OBJECT_NAME,OBJECT_ID,EPOCH,MEAN_MOTION,ECCENTRICITY,INCLINATION,RA_OF_ASC_NODE,ARG_OF_PERICENTER,MEAN_ANOMALY,EPHEMERIS_TYPE,CLASSIFICATION_TYPE,NORAD_CAT_ID,ELEMENT_SET_NO,REV_AT_EPOCH,BSTAR,MEAN_MOTION_DOT,MEAN_MOTION_DDOT
MEASAT-3B,2014-054B,2024-08-19T14:20:41.756928,1.00273072,.0001778,0.0328,18.8190,91.7594,164.5142,0,U,40147,999,3623,0,-.248E-5,0
LUCH (OLYMP-K 1),2014-058A,2024-08-19T16:34:00.065856,1.00271807,.000236,0.1758,91.9241,304.7913,162.1976,0,U,40258,999,3625,0,-.147E-5,0
SJ-11-07,2014-059A,2024-08-19T19:11:38.812128,14.62097329,.0012372,98.0681,308.6490,89.3479,270.9140,0,U,40261,999,52748,.43483E-3,.2141E-4,0
HIMAWARI-8,2014-060A,2024-08-19T20:46:19.118784,1.00269639,.0000891,0.0538,264.6393,274.1565,242.1421,0,U,40267,999,3618,0,-.282E-5,0
IRNSS-1C,2014-061A,2024-08-19T15:12:14.914944,1.00272782,.0020803,4.8245,103.1715,12.4485,163.9420,0,U,40269,999,3600,0,-.169E-5,0
INTELSAT 30 (IS-30),2014-062A,2024-08-19T05:06:40.037760,1.00272691,.0002068,0.0181,100.7254,269.0373,299.9070,0,U,40271,999,3607,0,-.156E-5,0
ARSAT 1,2014-062B,2024-08-19T14:40:52.834368,1.00271602,.0001883,0.0222,345.7579,161.6847,329.4144,0,U,40272,999,3593,0,-.265E-5,0
YAOGAN-22,2014-063A,2024-08-19T14:07:25.377024,13.15487368,.0005836,100.6725,4.8857,249.4045,110.6441,0,U,40275,999,47216,.19365E-4,-.39E-6,0
EXPRESS-AM6,2014-064A,2024-08-19T10:02:04.620192,1.00268953,.0001252,0.0281,115.4661,46.0076,10.2903,0,U,40277,999,3489,0,.93E-6,0
SJ-11-08,2014-066A,2024-08-19T19:50:16.327968,14.64081432,.0013075,98.2620,359.8254,156.9162,203.2630,0,U,40286,999,52363,.54426E-3,.2812E-4,0
NAVSTAR 72 (USA 258),2014-068A,2024-08-19T19:49:48.123552,2.00563781,.0055151,56.4765,56.7589,64.6952,295.9333,0,U,40294,999,7182,0,-.13E-6,0
MERIDIAN 7,2014-069A,2024-08-19T04:47:16.917504,2.00620922,.6987429,63.5486,287.5894,273.2343,16.0333,0,U,40296,999,7185,0,.4E-7,0
ASNARO,2014-070A,2024-08-19T19:49:40.848672,15.19959431,.000035,97.4091,313.2002,311.5992,48.5213,0,U,40298,999,54283,.11814E-2,.25415E-3,0
HODOYOSHI-1,2014-070B,2024-08-19T19:50:10.315392,15.52866709,.0007988,97.1343,292.3431,160.8140,199.3416,0,U,40299,999,54498,.83456E-3,.52017E-3,0
YAOGAN-23,2014-071A,2024-08-19T20:37:59.426112,15.58142538,.0004994,97.6895,222.5218,123.3347,236.8386,0,U,40305,999,54228,.11313E-2,.85899E-3,0
YAOGAN-24,2014-072A,2024-08-19T20:11:15.945792,14.76188063,.0012104,98.0630,357.2275,232.8309,127.1795,0,U,40310,999,52543,.43318E-3,.2947E-4,0
COSMOS 2501 [GLONASS-K],2014-075A,2024-08-17T03:17:04.096608,2.13101415,.0020928,63.6228,213.5565,211.3795,148.5004,0,U,40315,999,7559,0,.81E-6,0
GSAT-16,2014-078A,2024-08-19T13:28:16.383072,1.00273218,.0007151,0.0809,96.5170,9.6026,119.4194,0,U,40332,999,3542,0,.78E-6,0
DIRECTV 14,2014-078B,2024-08-19T16:10:18.125760,1.00272084,.0000378,0.0048,151.3920,262.9442,57.5002,0,U,40333,999,3556,0,-.132E-5,0
CBERS 4,2014-079A,2024-08-19T19:50:54.156480,14.35504208,.0001655,98.3961,299.4859,117.5537,242.5817,0,U,40336,999,50837,.20114E-3,.536E-5,0
YAOGAN-25 01A,2014-080A,2024-08-19T13:10:43.092768,13.45295012,.0307264,63.3908,227.3801,6.1063,354.3574,0,U,40338,999,47597,.23033E-3,.91E-6,0
YAOGAN-25 01B,2014-080B,2024-08-19T13:06:45.876384,13.45312885,.0307538,63.3916,227.5257,5.9746,354.4815,0,U,40339,999,47594,.22459E-3,.86E-6,0
YAOGAN-25 01C,2014-080C,2024-08-19T13:05:37.093344,13.45316030,.0307201,63.3898,227.9078,6.5798,353.9121,0,U,40340,999,47606,.22088E-3,.83E-6,0
YAMAL 401,2014-082A,2024-08-19T19:53:34.488096,1.00270271,.0000349,0.0232,139.3852,79.2361,138.3488,0,U,40345,999,3573,0,-.234E-5,0
O3B FM10,2014-083A,2024-08-18T02:59:28.616928,5.00115583,.0002586,0.0541,1.7454,144.8310,213.4393,0,U,40348,999,17647,0,-.16E-6,0
O3B FM11,2014-083B,2024-08-17T17:42:48.796128,5.00115542,.0001873,0.0578,358.9052,148.2324,212.8736,0,U,40349,999,17647,0,-.16E-6,0
O3B FM12,2014-083C,2024-08-18T03:57:48.057984,5.00115620,.0002486,0.0569,358.5243,151.3600,210.1294,0,U,40350,999,17649,0,-.16E-6,0
O3B FM9,2014-083D,2024-08-19T14:11:03.080832,5.00115990,.0002552,0.0590,358.3445,149.0134,212.6569,0,U,40351,999,17672,0,-.17E-6,0
COSMOS 2502,2014-086A,2024-08-19T21:37:10.394400,13.97650111,.0005667,67.1509,189.2879,288.6640,71.3830,0,U,40358,999,49254,.10788E-3,.77E-6,0
RESURS-P 2,2014-087A,2024-08-19T19:43:46.359840,15.64388861,.0005581,97.1489,319.9828,66.9251,293.2597,0,U,40360,999,54099,.5534E-3,.53137E-3,0
YAOGAN-26,2014-088A,2024-08-19T20:14:07.960416,15.24064704,.00045,97.0817,250.3329,192.7930,167.3194,0,U,40362,999,53699,.98221E-3,.23829E-3,0
ASTRA 2G,2014-089A,2024-08-19T16:47:09.533760,1.00270322,.0003605,0.0544,315.6137,136.6056,156.2635,0,U,40364,999,3533,0,.143E-5,0
FENGYUN 2G,2014-090A,2024-08-19T14:23:47.791680,1.00264138,.0003297,3.9476,80.7986,138.8871,64.0884,0,U,40367,999,3531,0,-.306E-5,0
MUOS-3,2015-002A,2024-08-19T11:33:18.478368,1.00270711,.0059202,3.3350,36.4208,176.4120,273.2841,0,U,40374,999,3490,0,-.133E-5,0
SMAP,2015-003A,2024-08-19T19:44:23.750304,14.63375871,.0001242,98.1289,238.3165,77.8959,282.2382,0,U,40376,999,51016,.38912E-3,.1964E-4,0
INMARSAT 5-F2,2015-005A,2024-08-19T18:06:02.611296,1.00271912,.0000335,0.0045,155.8186,87.7174,301.5492,0,U,40384,999,3499,0,-.292E-5,0
COSMOS 2503,2015-009A,2024-08-19T02:11:40.381440,15.02751546,.0016661,97.9274,264.2754,350.5821,9.5088,0,U,40420,999,51859,.36382E-3,.4813E-4,0
ABS-3A,2015-010A,2024-08-19T00:39:42.575904,1.00270243,.0001421,0.0159,84.8395,324.2357,285.6895,0,U,40424,999,3468,0,-.32E-6,0
EUTELSAT 115 WEST B,2015-010B,2024-08-18T10:41:38.421312,1.00271455,.0000239,0.0107,205.8559,76.6929,90.2393,0,U,40425,999,3469,0,-.28E-6,0
MMS 1,2015-011A,2024-08-19T06:00:02.000160,0.28362790,.9056882,51.5457,7.0678,150.0304,96.2622,0,U,40482,999,130,0,-.2423E-4,0
MMS 2,2015-011B,2024-08-19T06:00:02.000160,0.28359390,.9056986,51.5454,7.0685,150.0301,95.5096,0,U,40483,999,137,0,-.2423E-4,0
MMS 3,2015-011C,2024-08-19T06:00:02.000160,0.28359484,.9056953,51.5467,7.0677,150.0304,95.6192,0,U,40484,999,137,0,-.2423E-4,0
MMS 4,2015-011D,2024-08-19T08:00:01.999872,0.28322093,.9057989,51.5709,7.0461,150.0490,97.9266,0,U,40485,999,137,0,-.242E-4,0
EXPRESS-AM7,2015-012A,2024-08-19T13:24:30.820320,1.00272810,.0002714,0.0161,95.5212,53.8579,60.1220,0,U,40505,999,3432,0,.145E-5,0
NAVSTAR 73 (USA 260),2015-013A,2024-08-19T10:58:29.091360,2.00561678,.0089568,53.3258,231.7745,30.0473,330.4772,0,U,40534,999,6845,0,.57E-6,0
KOMPSAT-3A,2015-014A,2024-08-19T19:52:51.978432,15.23991639,.0005502,97.6162,183.9185,86.4186,273.7680,0,U,40536,999,51939,.78772E-3,.19041E-3,0
GSAT0203 (GALILEO 7),2015-017A,2024-08-19T06:24:21.459456,1.70476078,.0003125,56.9229,359.7556,233.7188,126.2532,0,U,40544,999,5783,0,-.83E-6,0
GSAT0204 (GALILEO 8),2015-017B,2024-08-18T22:25:56.796960,1.70475570,.0003436,56.9301,359.7802,216.6274,143.3500,0,U,40545,999,2087,0,-.82E-6,0
IRNSS-1D,2015-018A,2024-08-19T11:36:03.066048,1.00277046,.0020245,27.3635,251.6077,195.3415,167.0785,0,U,40547,999,3430,0,-.265E-5,0
BEIDOU-3S IGSO-1S,2015-019A,2024-08-19T15:21:10.105056,1.00291487,.0036579,50.4535,303.4445,196.0422,154.1651,0,U,40549,999,3438,0,-.154E-5,0
GONETS-M 11,2015-020A,2024-08-19T13:39:30.699648,12.42873846,.0016823,82.4817,86.3361,19.4877,340.6842,0,U,40552,999,42592,.36395E-3,.6E-6,0
GONETS-M 12,2015-020B,2024-08-19T13:01:25.490496,12.42884800,.0015279,82.4851,87.2882,5.0583,355.0648,0,U,40553,999,42591,.38109E-3,.63E-6,0
GONETS-M 13,2015-020C,2024-08-19T14:18:09.687744,12.42874936,.0013545,82.4812,86.0829,350.4624,9.6196,0,U,40554,999,42589,.40087E-3,.65E-6,0
COSMOS 2504,2015-020D,2024-08-19T20:30:09.050688,13.60416627,.0610543,82.5182,25.9996,284.6090,68.8143,0,U,40555,999,45955,.24187E-3,.651E-5,0
THOR 7,2015-022A,2024-08-19T00:39:42.575904,1.00270356,.0002789,0.0364,251.5480,251.2871,194.3009,0,U,40613,999,3412,0,-.13E-6,0
TURKMENALEM52E/MONACOSAT,2015-023A,2024-08-19T13:28:01.345152,1.00272727,.0002442,0.0300,101.5247,57.5299,63.3481,0,U,40617,999,3416,0,.98E-6,0
DIRECTV 15,2015-026A,2024-08-19T16:09:33.012000,1.00271339,.0000468,0.0153,99.6096,35.4397,332.9730,0,U,40663,999,3385,0,-.109E-5,0
SKY MEXICO-1,2015-026B,2024-08-19T12:50:33.238752,1.00270878,.0002166,0.0200,95.0354,57.2451,289.9684,0,U,40664,999,3376,0,-.24E-5,0
SENTINEL-2A,2015-028A,2024-08-19T19:24:49.062816,14.30827673,.0001132,98.5653,306.1631,94.6310,265.5002,0,U,40697,999,47844,.20856E-3,.503E-5,0
COSMOS 2506,2015-029A,2024-08-19T20:06:31.065120,14.53854279,.000848,98.1470,284.3288,65.1567,295.0510,0,U,40699,999,48604,.1636E-3,.644E-5,0
GAOFEN-8,2015-030A,2024-08-19T20:59:42.715680,15.24440176,.0003665,97.6620,28.9020,344.1991,15.9131,0,U,40701,999,50934,.10901E-2,.26754E-3,0
DMC3-FM1,2015-032A,2024-08-19T21:24:57.417408,14.83899785,.0007303,97.7401,109.9183,85.7658,274.4391,0,U,40715,999,49102,.27262E-3,.2213E-4,0
DMC3-FM2,2015-032B,2024-08-19T20:20:20.676192,14.83907505,.0009231,97.7455,110.9869,89.4347,270.7925,0,U,40716,999,49101,.26E-3,.2109E-4,0
DMC3-FM3,2015-032C,2024-08-19T21:01:21.692064,14.83814536,.001067,97.7503,112.3204,86.9402,273.3033,0,U,40717,999,49102,.28286E-3,.2295E-4,0
CARBONITE 1 (CBNT-1),2015-032D,2024-08-19T19:23:14.804736,14.79008383,.0014564,97.6552,69.8766,321.0417,38.9745,0,U,40718,999,49066,.61683E-3,.4518E-4,0
NAVSTAR 74 (USA 262),2015-033A,2024-08-19T02:53:41.220672,2.00563732,.0094742,54.5402,294.4867,19.7374,340.7112,0,U,40730,999,6661,0,-.3E-7,0
METEOSAT-11 (MSG-4),2015-034A,2024-08-19T04:40:47.851392,1.00264403,.0000741,1.5342,70.2794,172.7867,164.6959,0,U,40732,999,3332,0,.58E-6,0
STAR ONE C4,2015-034B,2024-08-19T12:53:03.615360,1.00272342,.0001495,0.0363,59.0541,97.3735,295.2148,0,U,40733,999,3333,0,-.271E-5,0
WGS F7 (USA 263),2015-036A,2024-08-19T11:23:31.589952,1.00269728,.0000287,0.0138,109.5348,29.5474,175.1061,0,U,40746,999,3318,0,.12E-6,0
BEIDOU-3S M2S,2015-037A,2024-08-17T19:29:42.643104,1.86233136,.0011079,55.4313,324.9415,245.7810,114.1477,0,U,40748,999,6167,0,-.64E-6,0
